#dP2023  1 28 18  0  0.00000000      96 __u+U ITR00 EXT  IAC
## 2246 583200.00000000   900.00000000 59972 0.7500000000000
+  117   C06C07C08C09C10C11C12C13C14C16C19C20C21C22C23C24C25
+        C26C27C28C29C30C32C33C34C35C36C37C38C39C40C41C42C43
+        C44C45C46E01E02E03E04E05E07E08E09E10E11E12E13E14E15
+        E18E19E21E24E25E27E30E31E33E34E36G01G02G03G04G05G06
+        G07G08G09G10G11G12G13G14G15G16G17G18G19G20G21G22G23
+        G24G26G27G29G30G31G32J02J03J04R01R02R03R04R05R07R08
+        R09R11R12R13R14R15R16R17R18R19R20R21R22R24R25  0  0
++         0  0  0  0  0  0  0  0  0  0  0  0  0  0  0  0  0
++         0  0  0  0  0  0  0  0  0  0  0  0  0  0  0  0  0
++         0  0  0  0  0  0  0  0  0  0  0  0  0  0  0  0  0
++         0  0  0  0  0  0  0  0  0  0  0  0  0  0  0  0  0
++         0  0  0  0  0  0  0  0  0  0  0  0  0  0  0  0  0
++         0  0  0  0  0  0  0  0  0  0  0  0  0  0  0  0  0
++         0  0  0  0  0  0  0  0  0  0  0  0  0  0  0  0  0
%c M  cc GPS ccc cccc cccc cccc cccc ccccc ccccc ccccc ccccc
%c cc cc ccc ccc cccc cccc cccc cccc ccccc ccccc ccccc ccccc
%f  0.0000000  0.000000000  0.00000000000  0.000000000000000
%f  0.0000000  0.000000000  0.00000000000  0.000000000000000
%i    0    0    0    0      0      0      0      0         0
%i    0    0    0    0      0      0      0      0         0
/* IAC                                ULTRA-RAPID PREDICTION
/* S/V CLOCKS ARE ALIGNED TO GNSS TIME                      
/* G:C1WC2W R:C1PC2P E:C1XC5X C:C2IC6I J:C1CC2S             
/* PCV:IGS20_2239 OL/AL:FES2004  NONE     YN ORB:CoN CLK:CoN
*  2023 01 29 10 45  0.00000000
PC06  -2157.331905  34830.206571 -23459.731685   -188.629550
PC07 -12161.251831  26389.598033  30552.359172    -53.347356
PC08 -16459.941628  37359.669293 -10898.566854    527.705829
PC09   3818.150419  38366.473716 -16026.336003    457.597895
PC10  -4468.309800  27257.987661  32095.540392     22.560051
PC11 -17473.695089 -21350.468958   4205.413000   -150.784733
PC12  -5911.688429 -23956.363893 -12987.994683    423.176133
PC13 -11936.133631  37702.839450 -14832.962865    194.946007
PC14 -19211.509621 -10188.991183  17478.187091    420.062017
PC16  -2493.722050  33962.506988 -24455.814224     71.477857
PC19  25689.452685   4372.458466  -9979.816126   -895.391902
PC20  11596.446703  13578.926873 -21436.963389    747.221003
PC21  10669.083714 -15270.777584  20801.071849   -913.673262
PC22  25668.972936  -7747.833858   7776.416239   -660.664424
PC23 -18709.366428  13483.152696 -15725.084355   -873.704120
PC24  -1997.826173 -22909.666419 -15808.386897   -479.193250
PC25 -15492.470277  -5190.540771 -22636.890429     63.237740
PC26  10223.178065 -25915.083708  -1251.658974    -71.143866
PC27  -1632.495398  20553.391217  18780.853094     88.773067
PC28 -15094.816082   5911.125146  22720.997346     64.383076
PC29  21035.824443  13011.056783 -12919.000816     73.891504
PC30  13620.953880  23839.769836   4908.772367      1.250849
PC32 -10622.594327  15334.820830 -20735.417127   -636.473568
PC33 -25645.822732  -4326.069828  10106.327077   -876.702247
PC34 -14403.461282 -23626.606982  -3732.037728     94.289548
PC35  15697.679180  -5246.330187 -22469.807223    689.565010
PC36  15033.195450   6315.843550  22660.175916   -661.525762
PC37 -11724.315041  25340.313152   -122.071128   -834.445117
PC38 -20573.981064  36830.647944  -1996.759939     55.186020
PC39  -6876.967533  29227.671513 -29475.717695     -1.606675
PC40 -17835.642734  19879.972551  32548.082400    -13.740807
PC41 -25913.601325   7461.229895  -7126.990823   -549.137095
PC42 -10192.366699 -14069.119246  21879.567668   -867.479533
PC43 -21012.205784 -13736.992323  12208.782412      4.497318
PC44   1131.508938 -20592.242931 -18825.123882    192.388398
PC45  18587.073436 -13869.489865  15492.992618    -53.630502
PC46   3240.901747  21889.689035  17018.572190    -29.728139
PE01  15557.183116   8944.386295  23533.009977   -599.060269
PE02 -15927.990361  -8609.555668 -23430.007502     17.583213
PE03 -24731.706002 -15565.379031   4691.447625   -644.701267
PE04  26386.619732   2417.364300  13194.659545    -46.623415
PE05  -8473.017006 -19866.173397  20244.386731   -100.538722
PE07 -12577.715024  12444.454173 -23725.256324    -18.855032
PE08 -26399.605054  -2530.446507 -13141.159398    -27.315582
PE09  12695.978068 -12218.188354  23786.471402   -817.109048
PE10  13593.978183 -13252.055538 -22710.002352   -508.534194
PE11   8841.977724 -23052.873561 -16341.827714    664.427658
PE12  15953.050933  -2337.523218 -24819.376437   -402.155265
PE13  -9237.210660  22362.410876  17054.875422    429.622737
PE14 -10753.622633  11311.587849  18369.251724    127.005433
PE15 -15920.741087   1930.239860  24890.631053    690.931677
PE18  19439.048071 -10351.672776 -23216.537951   -453.326070
PE19  23243.315450  16841.012829  -7211.644678  -3367.451076
PE21  -2289.637161  19710.586547  21961.039870   -509.049430
PE24  20854.846284 -19791.646090  -6992.447365  -1084.551037
PE25   2600.073061 -19814.063307 -21832.337873   -598.233186
PE27 -20267.838069  20138.754178   7765.611854   -499.317897
PE30 -26106.646465   8046.455899 -11438.837011  -1199.154946
PE31  26120.843491  -8696.246552  10861.412826   -514.599870
PE33  13151.299039  19486.364867 -17969.105131   -453.203699
PE34 -13255.955573 -19316.192733  18091.438268    -27.318576
PE36  -2792.077804 -29466.434644    700.412315     -4.445838
PG01 -13127.840485  11001.737789  19879.156163    218.700365
PG02  11053.270577 -15484.283519 -18000.232410   -624.351174
PG03 -23232.279238  12661.244056   1354.371521   -368.649844
PG04 -18044.181101   4493.478997 -19000.888627    -38.874517
PG05  21932.538950  -1792.450581 -15125.591227   -113.837173
PG06   5833.093585  24315.196179  -8746.846423    565.564679
PG07  -7040.240239  23079.805652 -10089.706781    250.653472
PG08 -24195.448171  -4628.514493  10368.919666   -105.914240
PG09  -7544.819776  13381.220277 -21743.633529   -228.004048
PG10    935.753175 -16777.119664  20660.682447    -22.435206
PG11  12289.165708  14486.264961 -18565.879175    -90.349061
PG12  24294.943426 -10227.946635   2485.458035   -333.871780
PG13  22742.770383  12859.706040   5143.979016    467.367182
PG14  -4110.785510  17877.341821  19168.745958    -39.301519
PG15  24514.696120   1736.105223   9962.935613      8.771592
PG16 -20774.386352  -2983.038821 -16849.023047   -522.252063
PG17   5641.159676  18578.470342  18516.408262    696.596945
PG18   5319.198732 -24832.266702  -7520.876930   -118.525310
PG19  15672.650960  19214.155245   9652.495892    270.522555
PG20  14632.506981   7319.408675 -20856.102175    454.051569
PG21 -15434.890049   1214.754254  22171.433661    153.720212
PG22 -17866.945663 -18452.668660   7531.436131    415.987042
PG23  12471.246469 -18932.872588  13720.180235      4.054209
PG24  14708.658412  -6726.076976  20659.275673    -50.855653
PG26 -10628.056498 -11861.682312 -21382.049662    240.943485
PG27 -23366.950187 -13100.396543    -35.350805    115.286945
PG29  11105.842946 -10290.924119 -21873.417154   -583.155585
PG30   1093.975452  26357.389900   1497.840726   -531.966556
PG31  -7236.648634 -23076.373959 -10601.848614   -207.710074
PG32  -9792.912869 -18615.097316  16501.368252   -379.446983
PJ02 -30933.847740  28388.863795   8912.934486     -0.722118
PJ03 -25156.727971  25113.213662  27816.480320      0.024650
PJ04 -31147.663837  22921.190561 -11449.351652    120.973489
PR01  25117.836705   -509.730278   4447.964175     22.076636
PR02  13791.171558  -8027.831262  19920.679224    -23.326649
PR03  -5114.940499 -11102.009825  22443.274117     71.567659
PR04 -20734.225638  -7905.984383  12623.392828    173.837163
PR05 -25180.646529   -573.570786  -4113.241973    106.893919
PR07   5877.518380  11049.130339 -22177.683289     48.879389
PR08  20886.870060   7751.810778 -12333.079697    -69.251589
PR09 -14449.828338  20956.341089   -823.373441    101.176943
PR11   7497.523492   8318.150043  22922.661521      1.538884
PR12  16494.919459  -9478.554073  16998.853948     24.648937
PR13  15236.531350 -20289.729944   2562.459555    -31.447235
PR14   4509.972375 -19808.370236 -15429.957020     24.304904
PR15  -8244.318389  -7470.178702 -22942.011210     91.421043
PR16 -16242.446255   9378.332583 -17272.572298     10.591401
PR17  -7270.984744 -23437.246698  -6889.528275    600.064568
PR18 -13471.054384 -19344.654320   9837.599670     64.158178
PR19 -12884.282400  -6851.945947  20927.169767   -219.960082
PR20  -4341.352064  13888.365187  20950.632795    -86.752655
PR21   8028.719968  23645.318980   5265.339190   -369.182149
PR22  13060.322517  19227.654377 -10457.143434     68.713015
PR24   3867.230225 -14761.807237 -20415.313247    142.970451
PR25   5864.944989  23769.412383   7200.620962     52.924304
EOF
